{
  "type": "FeatureCollection",
  "features": [
    {
      "type": "Feature",
      "properties": {},
      "geometry": {
        "type": "Polygon",
        "coordinates": [
          [
            [
              75.765923,
              12.452795
            ],
            [
              75.757072,
              12.448655
            ],
            [
              75.75158,
              12.441041
            ],
            [
              75.75195,
              12.433093
            ],
            [
              75.755991,
              12.430397
            ],
            [
              75.758182,
              12.430786
            ],
            [
              75.759235,
              12.427618
            ],
            [
              75.764671,
              12.429341
            ],
            [
              75.766919,
              12.430647
            ],
            [
              75.770846,
              12.430314
            ],
            [
              75.774574,
              12.429091
            ],
            [
              75.780834,
              12.429619
            ],
            [
              75.785331,
              12.432232
            ],
            [
              75.788177,
              12.438762
            ],
            [
              75.787038,
              12.447599
            ],
            [
              75.778529,
              12.454435
            ],
            [
              75.771586,
              12.454296
            ],
            [
              75.765923,
              12.452795
            ]
          ]
        ]
      }
    }
  ]
}
